start=new Date('2021-10-02T00:00:00.000Z').valueOf();
sats=[{"TLE_LINE1":"1 48022U 21024AX  21274.84749465 -.00000642  00000-0 -24176-4 0  9996","INCLINATION":"53.0576","EPHEMERIS_TYPE":"0","DECAY_DATE":null,"TIME_SYSTEM":"UTC","BSTAR":"-0.00002417600000","EPOCH":"2021-10-01T20:20:23.537760","ELEMENT_SET_NO":"999","OBJECT_NAME":"STARLINK-2298","APOAPSIS":"548.178","TLE_LINE2":"2 48022  53.0576  43.3760 0001417 108.1924 251.9219 15.06405609 30485","ECCENTRICITY":"0.00014170","LAUNCH_DATE":"2021-03-24","MEAN_MOTION_DOT":"-0.00000642","CENTER_NAME":"EARTH","SITE":"AFETR","CLASSIFICATION_TYPE":"U","GP_ID":"185962088","NORAD_CAT_ID":"48022","RCS_SIZE":"LARGE","MEAN_MOTION":"15.06405609","REF_FRAME":"TEME","MEAN_ELEMENT_THEORY":"SGP4","FILE":"3139397","MEAN_ANOMALY":"251.9219","OBJECT_TYPE":"PAYLOAD","RA_OF_ASC_NODE":"43.3760","PERIAPSIS":"546.215","COUNTRY_CODE":"US","MEAN_MOTION_DDOT":"0.0000000000000","PERIOD":"95.592","OBJECT_ID":"2021-024AX","SEMIMAJOR_AXIS":"6925.331","ARG_OF_PERICENTER":"108.1924","REV_AT_EPOCH":"3048"},{"SEMIMAJOR_AXIS":"6925.379","OBJECT_ID":"2021-024AY","ARG_OF_PERICENTER":"98.7906","REV_AT_EPOCH":"3046","COUNTRY_CODE":"US","MEAN_MOTION_DDOT":"0.0000000000000","PERIOD":"95.593","PERIAPSIS":"546.423","RA_OF_ASC_NODE":"43.8861","MEAN_ANOMALY":"261.3217","OBJECT_TYPE":"PAYLOAD","MEAN_ELEMENT_THEORY":"SGP4","FILE":"3139397","MEAN_MOTION":"15.06389924","REF_FRAME":"TEME","CLASSIFICATION_TYPE":"U","GP_ID":"185961341","NORAD_CAT_ID":"48023","RCS_SIZE":"LARGE","LAUNCH_DATE":"2021-03-24","CENTER_NAME":"EARTH","MEAN_MOTION_DOT":"0.00000100","SITE":"AFETR","ECCENTRICITY":"0.00011860","TLE_LINE2":"2 48023  53.0566  43.8861 0001186  98.7906 261.3217 15.06389924 30461","APOAPSIS":"548.066","ELEMENT_SET_NO":"999","EPOCH":"2021-10-01T17:31:53.786496","OBJECT_NAME":"STARLINK-2292","DECAY_DATE":null,"TIME_SYSTEM":"UTC","BSTAR":"0.00002559200000","TLE_LINE1":"1 48023U 21024AY  21274.73048364  .00000100  00000-0  25592-4 0  9995","INCLINATION":"53.0566","EPHEMERIS_TYPE":"0"},{"OBJECT_TYPE":"PAYLOAD","MEAN_ANOMALY":"337.3470","MEAN_ELEMENT_THEORY":"SGP4","FILE":"3139180","SEMIMAJOR_AXIS":"6727.842","OBJECT_ID":"2021-024AZ","ARG_OF_PERICENTER":"288.0943","REV_AT_EPOCH":"3095","COUNTRY_CODE":"US","MEAN_MOTION_DDOT":"0.0000000000000","PERIOD":"91.532","PERIAPSIS":"344.342","RA_OF_ASC_NODE":"332.1850","APOAPSIS":"355.071","EPOCH":"2021-10-01T22:00:00.999936","ELEMENT_SET_NO":"999","OBJECT_NAME":"STARLINK-2302","DECAY_DATE":null,"TIME_SYSTEM":"UTC","BSTAR":"0.00009209100000","TLE_LINE1":"1 48024U 21024AZ  21274.91667824  .00012348  00000-0  92091-4 0  9999","INCLINATION":"53.0448","EPHEMERIS_TYPE":"0","MEAN_MOTION":"15.73218756","REF_FRAME":"TEME","CLASSIFICATION_TYPE":"U","NORAD_CAT_ID":"48024","GP_ID":"185934691","RCS_SIZE":"LARGE","LAUNCH_DATE":"2021-03-24","MEAN_MOTION_DOT":"0.00012348","CENTER_NAME":"EARTH","SITE":"AFETR","TLE_LINE2":"2 48024  53.0448 332.1850 0007974 288.0943 337.3470 15.73218756 30956","ECCENTRICITY":"0.00079740"},{"SEMIMAJOR_AXIS":"6727.830","OBJECT_ID":"2021-024BA","ARG_OF_PERICENTER":"336.6248","REV_AT_EPOCH":"369","MEAN_MOTION_DDOT":"0.0000000000000","COUNTRY_CODE":"US","PERIOD":"91.532","PERIAPSIS":"347.805","RA_OF_ASC_NODE":"332.1790","OBJECT_TYPE":"PAYLOAD","MEAN_ANOMALY":"289.4330","MEAN_ELEMENT_THEORY":"SGP4","FILE":"3139397","MEAN_MOTION":"15.73222866","REF_FRAME":"TEME","CLASSIFICATION_TYPE":"U","GP_ID":"185961835","NORAD_CAT_ID":"48025","RCS_SIZE":"LARGE","LAUNCH_DATE":"2021-03-24","MEAN_MOTION_DOT":"0.00034197","CENTER_NAME":"EARTH","SITE":"AFETR","ECCENTRICITY":"0.00028090","TLE_LINE2":"2 48025  53.0447 332.1790 0002809 336.6248 289.4330 15.73222866  3699","APOAPSIS":"351.585","EPOCH":"2021-10-01T22:00:00.999936","ELEMENT_SET_NO":"999","OBJECT_NAME":"STARLINK-2318","DECAY_DATE":null,"TIME_SYSTEM":"UTC","BSTAR":"0.00024677000000","TLE_LINE1":"1 48025U 21024BA  21274.91667824  .00034197  00000-0  24677-3 0  9990","INCLINATION":"53.0447","EPHEMERIS_TYPE":"0"},{"MEAN_ANOMALY":"227.4307","OBJECT_TYPE":"PAYLOAD","FILE":"3139397","MEAN_ELEMENT_THEORY":"SGP4","PERIAPSIS":"545.883","RA_OF_ASC_NODE":"49.5315","REV_AT_EPOCH":"3032","SEMIMAJOR_AXIS":"6924.905","OBJECT_ID":"2021-024BB","ARG_OF_PERICENTER":"132.6789","MEAN_MOTION_DDOT":"0.0000000000000","COUNTRY_CODE":"US","PERIOD":"95.583","BSTAR":"0.00103940000000","DECAY_DATE":null,"TIME_SYSTEM":"UTC","EPHEMERIS_TYPE":"0","TLE_LINE1":"1 48026U 21024BB  21274.64327131  .00015295  00000-0  10394-2 0  9993","INCLINATION":"53.0231","APOAPSIS":"547.657","OBJECT_NAME":"STARLINK-2278","EPOCH":"2021-10-01T15:26:18.641184","ELEMENT_SET_NO":"999","SITE":"AFETR","LAUNCH_DATE":"2021-03-24","MEAN_MOTION_DOT":"0.00015295","CENTER_NAME":"EARTH","TLE_LINE2":"2 48026  53.0231  49.5315 0001281 132.6789 227.4307 15.06544813 30321","ECCENTRICITY":"0.00012810","MEAN_MOTION":"15.06544813","REF_FRAME":"TEME","RCS_SIZE":"LARGE","CLASSIFICATION_TYPE":"U","NORAD_CAT_ID":"48026","GP_ID":"185962589"},{"FILE":"3139397","MEAN_ELEMENT_THEORY":"SGP4","MEAN_ANOMALY":"270.1101","OBJECT_TYPE":"PAYLOAD","RA_OF_ASC_NODE":"24.1637","PERIAPSIS":"546.277","PERIOD":"95.592","COUNTRY_CODE":"US","MEAN_MOTION_DDOT":"0.0000000000000","REV_AT_EPOCH":"3067","ARG_OF_PERICENTER":"90.0041","OBJECT_ID":"2021-024BC","SEMIMAJOR_AXIS":"6925.337","EPHEMERIS_TYPE":"0","TLE_LINE1":"1 48027U 21024BC  21274.66965395  .00001411  00000-0  11361-3 0  9997","INCLINATION":"53.0567","BSTAR":"0.00011361000000","TIME_SYSTEM":"UTC","DECAY_DATE":null,"OBJECT_NAME":"STARLINK-2300","EPOCH":"2021-10-01T16:04:18.101280","ELEMENT_SET_NO":"999","APOAPSIS":"548.126","ECCENTRICITY":"0.00013350","TLE_LINE2":"2 48027  53.0567  24.1637 0001335  90.0041 270.1101 15.06403921 30677","SITE":"AFETR","MEAN_MOTION_DOT":"0.00001411","CENTER_NAME":"EARTH","LAUNCH_DATE":"2021-03-24","RCS_SIZE":"LARGE","GP_ID":"185960841","NORAD_CAT_ID":"48027","CLASSIFICATION_TYPE":"U","MEAN_MOTION":"15.06403921","REF_FRAME":"TEME"},{"SITE":"AFETR","MEAN_MOTION_DOT":"-0.00924451","CENTER_NAME":"EARTH","LAUNCH_DATE":"2021-03-24","TLE_LINE2":"2 48028  53.0438 338.2247 0001731  42.0767  60.1739 15.16366341  3649","ECCENTRICITY":"0.00017310","MEAN_MOTION":"15.16366341","REF_FRAME":"TEME","RCS_SIZE":"LARGE","NORAD_CAT_ID":"48028","GP_ID":"185961091","CLASSIFICATION_TYPE":"U","BSTAR":"-0.05084400000000","TIME_SYSTEM":"UTC","DECAY_DATE":null,"EPHEMERIS_TYPE":"0","TLE_LINE1":"1 48028U 21024BD  21274.91667824 -.00924451  00000-0 -50844-1 0  9999","INCLINATION":"53.0438","APOAPSIS":"518.029","OBJECT_NAME":"STARLINK-2264","EPOCH":"2021-10-01T22:00:00.999936","ELEMENT_SET_NO":"999","PERIAPSIS":"515.642","RA_OF_ASC_NODE":"338.2247","REV_AT_EPOCH":"364","ARG_OF_PERICENTER":"42.0767","SEMIMAJOR_AXIS":"6894.971","OBJECT_ID":"2021-024BD","PERIOD":"94.964","COUNTRY_CODE":"US","MEAN_MOTION_DDOT":"0.0000000000000","OBJECT_TYPE":"PAYLOAD","MEAN_ANOMALY":"60.1739","FILE":"3139397","MEAN_ELEMENT_THEORY":"SGP4"},{"GP_ID":"185962336","NORAD_CAT_ID":"48029","CLASSIFICATION_TYPE":"U","RCS_SIZE":"LARGE","REF_FRAME":"TEME","MEAN_MOTION":"15.06400650","ECCENTRICITY":"0.00015160","TLE_LINE2":"2 48029  53.0566  43.1057 0001516 105.8183 254.2973 15.06400650 30494","CENTER_NAME":"EARTH","MEAN_MOTION_DOT":"0.00001497","LAUNCH_DATE":"2021-03-24","SITE":"AFETR","ELEMENT_SET_NO":"999","EPOCH":"2021-10-01T21:46:39.534528","OBJECT_NAME":"STARLINK-2299","APOAPSIS":"548.261","TLE_LINE1":"1 48029U 21024BE  21274.90740202  .00001497  00000-0  11937-3 0  9997","INCLINATION":"53.0566","EPHEMERIS_TYPE":"0","TIME_SYSTEM":"UTC","DECAY_DATE":null,"BSTAR":"0.00011937000000","PERIOD":"95.592","MEAN_MOTION_DDOT":"0.0000000000000","COUNTRY_CODE":"US","ARG_OF_PERICENTER":"105.8183","OBJECT_ID":"2021-024BE","SEMIMAJOR_AXIS":"6925.347","REV_AT_EPOCH":"3049","RA_OF_ASC_NODE":"43.1057","PERIAPSIS":"546.162","MEAN_ELEMENT_THEORY":"SGP4","FILE":"3139397","MEAN_ANOMALY":"254.2973","OBJECT_TYPE":"PAYLOAD"},{"OBJECT_TYPE":"PAYLOAD","MEAN_ANOMALY":"250.2448","FILE":"3139397","MEAN_ELEMENT_THEORY":"SGP4","REV_AT_EPOCH":"3032","SEMIMAJOR_AXIS":"6925.377","OBJECT_ID":"2021-024BF","ARG_OF_PERICENTER":"109.8674","COUNTRY_CODE":"US","MEAN_MOTION_DDOT":"0.0000000000000","PERIOD":"95.593","PERIAPSIS":"546.390","RA_OF_ASC_NODE":"49.1592","APOAPSIS":"548.094","OBJECT_NAME":"STARLINK-2268","ELEMENT_SET_NO":"999","EPOCH":"2021-10-01T16:03:39.972096","BSTAR":"-0.00007863100000","DECAY_DATE":null,"TIME_SYSTEM":"UTC","EPHEMERIS_TYPE":"0","TLE_LINE1":"1 48030U 21024BF  21274.66921264 -.00001452  00000-0 -78631-4 0  9999","INCLINATION":"53.0560","MEAN_MOTION":"15.06390726","REF_FRAME":"TEME","RCS_SIZE":"LARGE","CLASSIFICATION_TYPE":"U","NORAD_CAT_ID":"48030","GP_ID":"185962089","SITE":"AFETR","LAUNCH_DATE":"2021-03-24","CENTER_NAME":"EARTH","MEAN_MOTION_DOT":"-0.00001452","ECCENTRICITY":"0.00012300","TLE_LINE2":"2 48030  53.0560  49.1592 0001230 109.8674 250.2448 15.06390726 30329"},{"ECCENTRICITY":"0.00047400","TLE_LINE2":"2 48031  53.0471 332.4668 0004740 355.8618 130.1899 15.72810945 30940","SITE":"AFETR","MEAN_MOTION_DOT":"0.00633584","CENTER_NAME":"EARTH","LAUNCH_DATE":"2021-03-24","RCS_SIZE":"LARGE","NORAD_CAT_ID":"48031","GP_ID":"185934736","CLASSIFICATION_TYPE":"U","MEAN_MOTION":"15.72810945","REF_FRAME":"TEME","EPHEMERIS_TYPE":"0","TLE_LINE1":"1 48031U 21024BG  21274.91667824  .00633584  00000-0  42565-2 0  9997","INCLINATION":"53.0471","BSTAR":"0.00425650000000","TIME_SYSTEM":"UTC","DECAY_DATE":null,"OBJECT_NAME":"STARLINK-2267","ELEMENT_SET_NO":"999","EPOCH":"2021-10-01T22:00:00.999936","APOAPSIS":"354.059","RA_OF_ASC_NODE":"332.4668","PERIAPSIS":"347.680","PERIOD":"91.556","COUNTRY_CODE":"US","MEAN_MOTION_DDOT":"0.0000000000000","REV_AT_EPOCH":"3094","ARG_OF_PERICENTER":"355.8618","OBJECT_ID":"2021-024BG","SEMIMAJOR_AXIS":"6729.005","FILE":"3139172","MEAN_ELEMENT_THEORY":"SGP4","OBJECT_TYPE":"PAYLOAD","MEAN_ANOMALY":"130.1899"}];
